H1 CPF 01  gfz 2021 05 17 12  6372 tandemx   
H2 1003001  6202 36605    2021 05 17 12 59 42 2021 05 22 00 00 42   120 1 1  0 0 0
H9
10 0 59352  10062.000000  0    3460861.202   4635616.640   3731155.579
10 0 59352  10182.000000  0    3878198.001   4868910.774   2942909.067
10 0 59352  10302.000000  0    4231006.220   5010333.197   2102840.910
10 0 59352  10422.000000  0    4511497.895   5058607.755   1225743.034
10 0 59352  10542.000000  0    4713155.993   5014227.766    327064.390
10 0 59352  10662.000000  0    4830883.131   4879425.729   -577371.264
10 0 59352  10782.000000  0    4861119.529   4658104.604  -1471652.996
10 0 59352  10902.000000  0    4801931.416   4355736.872  -2340069.849
10 0 59352  11022.000000  0    4653066.701   3979233.515  -3167393.413
10 0 59352  11142.000000  0    4415976.057   3536785.642  -3939149.126
10 0 59352  11262.000000  0    4093798.862   3037683.596  -4641869.937
10 0 59352  11382.000000  0    3691316.929   2492118.203  -5263327.708
10 0 59352  11502.000000  0    3214877.196   1910969.462  -5792739.423
10 0 59352  11622.000000  0    2672284.477   1305587.597  -6220944.802
10 0 59352  11742.000000  0    2072667.806    687571.349  -6540553.042
10 0 59352  11862.000000  0    1426324.451     68548.444  -6746058.053
10 0 59352  11982.000000  0     744544.328   -540038.777  -6833924.821
10 0 59352  12102.000000  0      39414.101  -1127140.740  -6802643.441
10 0 59352  12222.000000  0    -676392.011  -1682295.508  -6652750.466
10 0 59352  12342.000000  0   -1389833.883  -2195809.972  -6386821.642
10 0 59352  12462.000000  0   -2087737.763  -2658926.560  -6009432.782
10 0 59352  12582.000000  0   -2757033.970  -3063971.138  -5527088.963
10 0 59352  12702.000000  0   -3384998.432  -3404481.488  -4948124.535
10 0 59352  12822.000000  0   -3959495.469  -3675314.582  -4282570.787
10 0 59352  12942.000000  0   -4469214.804  -3872728.418  -3541992.312
10 0 59352  13062.000000  0   -4903899.111  -3994437.688  -2739294.950
10 0 59352  13182.000000  0   -5254556.954  -4039641.433  -1888506.089
10 0 59352  13302.000000  0   -5513655.188  -4009020.846  -1004530.961
10 0 59352  13422.000000  0   -5675286.072  -3904707.219   -102889.569
10 0 59352  13542.000000  0   -5735304.594  -3730220.334    800560.992
10 0 59352  13662.000000  0   -5691431.702  -3490378.573   1689914.206
10 0 59352  13782.000000  0   -5543318.711  -3191181.107   2549504.273
10 0 59352  13902.000000  0   -5292572.381  -2839666.496   3364190.268
10 0 59352  14022.000000  0   -4942740.819  -2443752.357   4119630.009
10 0 59352  14142.000000  0   -4499259.418  -2012058.157   4802537.674
10 0 59352  14262.000000  0   -3969359.238  -1553717.447   5400917.522
10 0 59352  14382.000000  0   -3361942.561  -1078185.099   5904272.282
10 0 59352  14502.000000  0   -2687426.724   -595041.889   6303784.852
10 0 59352  14622.000000  0   -1957557.971   -113800.312   6592467.928
10 0 59352  14742.000000  0   -1185201.267    356282.125   6765278.640
10 0 59352  14862.000000  0    -384111.644    806379.063   6819200.935
10 0 59352  14982.000000  0     431310.887   1228260.092   6753294.886
10 0 59352  15102.000000  0    1246279.438   1614441.040   6568712.226
10 0 59352  15222.000000  0    2045887.778   1958317.115   6268677.034
10 0 59352  15342.000000  0    2815382.176   2254275.953   5858432.887
10 0 59352  15462.000000  0    3540435.083   2497790.375   5345157.524
10 0 59352  15582.000000  0    4207415.450   2685488.820   4737842.815
10 0 59352  15702.000000  0    4803648.896   2815202.593   4047142.950
10 0 59352  15822.000000  0    5317666.639   2885988.867   3285193.291
10 0 59352  15942.000000  0    5739435.753   2898126.774   2465395.914
10 0 59352  16062.000000  0    6060560.865   2853088.054   1602182.996
10 0 59352  16182.000000  0    6274459.015   2753483.813    710758.400
10 0 59352  16302.000000  0    6376498.702   2602986.237   -193178.190
10 0 59352  16422.000000  0    6364098.877   2406227.388  -1093717.399
10 0 59352  16542.000000  0    6236785.613   2168678.307  -1975027.691
10 0 59352  16662.000000  0    5996209.722   1896513.954  -2821640.340
10 0 59352  16782.000000  0    5646120.273   1596463.799  -3618727.370
10 0 59352  16902.000000  0    5192296.626   1275653.278  -4352363.697
10 0 59352  17022.000000  0    4642440.146    941440.429  -5009768.813
10 0 59352  17142.000000  0    4006031.418    601253.159  -5579522.726
10 0 59352  17262.000000  0    3294157.228    262429.686  -6051755.439
10 0 59352  17382.000000  0    2519309.667    -67934.167  -6418307.637
10 0 59352  17502.000000  0    1695162.698   -383128.417  -6672859.601
10 0 59352  17622.000000  0     836331.764   -676960.396  -6811029.907
10 0 59352  17742.000000  0     -41883.191   -943872.385  -6830443.420
10 0 59352  17862.000000  0    -923764.772  -1179042.916  -6730766.038
10 0 59352  17982.000000  0   -1793452.114  -1378471.437  -6513710.406
10 0 59352  18102.000000  0   -2635220.072  -1539045.119  -6183009.607
10 0 59352  18222.000000  0   -3433756.827  -1658586.494  -5744358.915
10 0 59352  18342.000000  0   -4174438.887  -1735882.404  -5205329.462
10 0 59352  18462.000000  0   -4843600.872  -1770693.032  -4575249.283
10 0 59352  18582.000000  0   -5428791.974  -1763740.294  -3865052.925
10 0 59352  18702.000000  0   -5919015.882  -1716676.144  -3087101.852
10 0 59352  18822.000000  0   -6304948.288  -1632030.761  -2254975.748
10 0 59352  18942.000000  0   -6579125.839  -1513141.082  -1383238.562
10 0 59352  19062.000000  0   -6736102.000  -1364061.576   -487182.933
10 0 59352  19182.000000  0   -6772565.124  -1189458.591    417442.643
10 0 59352  19302.000000  0   -6687414.501   -994490.567   1314717.894
10 0 59352  19422.000000  0   -6481791.753   -784678.191   2188839.841
10 0 59352  19542.000000  0   -6159066.965   -565767.213   3024410.163
10 0 59352  19662.000000  0   -5724779.910   -343587.216   3806714.784
10 0 59352  19782.000000  0   -5186536.851   -123910.222   4521989.272
10 0 59352  19902.000000  0   -4553866.842     87686.423   5157663.044
10 0 59352  20022.000000  0   -3838043.513    285950.946   5702578.904
10 0 59352  20142.000000  0   -3051875.196    466078.168   6147186.383
10 0 59352  20262.000000  0   -2209467.214    623817.484   6483704.074
10 0 59352  20382.000000  0   -1325963.026    755566.221   6706250.439
10 0 59352  20502.000000  0    -417267.917    858447.362   6810940.306
10 0 59352  20622.000000  0     500237.832    930369.258   6795947.505
10 0 59352  20742.000000  0    1409993.191    970066.964   6661534.524
10 0 59352  20862.000000  0    2295554.264    977124.847   6410048.356
10 0 59352  20982.000000  0    3140890.853    951979.416   6045882.516
10 0 59352  21102.000000  0    3930678.624    895902.594   5575405.342
10 0 59352  21222.000000  0    4650579.895    810965.970   5006853.551
10 0 59352  21342.000000  0    5287509.288    699985.798   4350195.311
10 0 59352  21462.000000  0    5829881.253    566450.592   3616960.860
10 0 59352  21582.000000  0    6267831.183    414433.076   2820041.398
10 0 59352  21702.000000  0    6593403.703    248487.377   1973461.216
10 0 59352  21822.000000  0    6800706.949     73533.312   1092128.755
10 0 59352  21942.000000  0    6886026.286   -105267.493    191567.312
10 0 59352  22062.000000  0    6847895.002   -282642.189   -712366.426
10 0 59352  22182.000000  0    6687118.829   -453340.323  -1603771.152
10 0 59352  22302.000000  0    6406754.655   -612266.613  -2466989.073
10 0 59352  22422.000000  0    6012043.880   -754609.724  -3286887.197
10 0 59352  22542.000000  0    5510303.516   -875963.852  -4049125.991
10 0 59352  22662.000000  0    4910777.744   -972439.573  -4740409.977
10 0 59352  22782.000000  0    4224455.317  -1040761.395  -5348715.047
10 0 59352  22902.000000  0    3463857.873  -1078351.127  -5863490.448
10 0 59352  23022.000000  0    2642802.974  -1083395.283  -6275831.874
10 0 59352  23142.000000  0    1776148.541  -1054893.825  -6578623.962
10 0 59352  23262.000000  0     879523.447   -992690.684  -6766651.795
10 0 59352  23382.000000  0     -30951.338   -897486.748  -6836681.582
10 0 59352  23502.000000  0    -938947.224   -770833.305  -6787509.690
10 0 59352  23622.000000  0   -1828213.632   -615107.370  -6619981.344
10 0 59352  23742.000000  0   -2682862.592   -433468.195  -6336977.112
10 0 59352  23862.000000  0   -3487645.649   -229796.556  -5943367.758
10 0 59352  23982.000000  0   -4228222.141     -8616.975  -5445940.826
10 0 59352  24102.000000  0   -4891416.006    224996.002  -4853294.278
10 0 59352  24222.000000  0   -5465453.965    465525.342  -4175699.914
10 0 59352  24342.000000  0   -5940183.794    707132.590  -3424936.757
10 0 59352  24462.000000  0   -6307265.428    943789.553  -2614094.425
10 0 59352  24582.000000  0   -6560330.253   1169417.561  -1757349.448
10 0 59352  24702.000000  0   -6695104.601   1378031.144   -869718.849
10 0 59352  24822.000000  0   -6709494.319   1563883.100     33207.225
10 0 59352  24942.000000  0   -6603623.427   1721605.542    935546.396
10 0 59352  25062.000000  0   -6379829.662   1846345.498   1821410.649
10 0 59352  25182.000000  0   -6042615.776   1933890.770   2675195.251
10 0 59352  25302.000000  0   -5598556.698   1980782.189   3481862.670
10 0 59352  25422.000000  0   -5056164.632   1984408.886   4227214.547
10 0 59352  25542.000000  0   -4425716.920   1943085.027   4898144.945
10 0 59352  25662.000000  0   -3719052.265   1856106.405   5482870.791
10 0 59352  25782.000000  0   -2949340.640   1723785.916   5971136.980
10 0 59352  25902.000000  0   -2130829.944   1547467.365   6354393.391
10 0 59352  26022.000000  0   -1278575.139   1329516.244   6625938.770
10 0 59352  26142.000000  0    -408157.482   1073288.578   6781030.650
10 0 59352  26262.000000  0     464600.648    783079.018   6816962.187
10 0 59352  26382.000000  0    1323922.425    464048.426   6733106.330
10 0 59352  26502.000000  0    2154360.504    122132.582   6530926.055
99
